TDRS 3                  
1 19548U 88091B   24345.36904615 -.00000293  00000+0  00000+0 0  9998
2 19548  13.0270 344.7029 0040371 337.3431 201.5818  1.00273795119831
HST                     
1 20580U 90037B   24345.40545193  .00011521  00000+0  48590-3 0  9991
2 20580  28.4676 241.2964 0002002 163.3979 196.6681 15.21693936703866
TDRS 5                  
1 21639U 91054B   24346.01324950 -.00000297  00000+0  00000+0 0  9990
2 21639  14.1391 357.8178 0006772 261.4870 123.4781  1.00272822122163
TDRS 6                  
1 22314U 93003B   24345.87004396 -.00000290  00000+0  00000+0 0  9992
2 22314  14.1689   1.1227 0008910 190.7124 155.6090  1.00275083116851
TDRS 7                  
1 23613U 95035B   24346.03877212 -.00000197  00000+0  00000+0 0  9992
2 23613  13.6082 351.9968 0021155  71.2481 115.6651  1.00277313107608
ISS (ZARYA)             
1 25544U 98067A   24346.58085661  .00019796  00000+0  34772-3 0  9995
2 25544  51.6389 156.5072 0007053 328.6631  66.3051 15.50486876486069
TERRA                   
1 25994U 99068A   24346.17598723  .00001079  00000+0  23271-3 0  9996
2 25994  98.0268  44.3066 0002857 144.1080 274.9967 14.60302515328999
TDRS 8                  
1 26388U 00034A   24345.37583781  .00000104  00000+0  00000+0 0  9997
2 26388  11.8109  35.8207 0007224 224.3406 147.0301  1.00274328 89639
TIMED                   
1 26998U 01055B   24345.78926826  .00003965  00000+0  38614-3 0  9998
2 26998  74.0703 267.4434 0002957 258.3244 101.7607 14.92863421248161
AQUA                    
1 27424U 02022A   24346.14190215  .00002271  00000+0  47805-3 0  9995
2 27424  98.3537 296.5058 0000512  61.7737  28.3377 14.60491995202530
TDRS 10                 
1 27566U 02055A   24345.84510924  .00000095  00000+0  00000+0 0  9991
2 27566   9.9008  44.0709 0005125 276.4589 252.6377  1.00268492 80688
SORCE                   
1 27651U 03004A   24345.81297389  .00006430  00000+0  54438-3 0  9992
2 27651  39.9903 166.9776 0019911  40.9141 319.3141 14.98039594188717
AURA                    
1 28376U 04026A   24345.81431948  .00002652  00000+0  56538-3 0  9998
2 28376  98.2719 289.7198 0000496 105.6913 254.4341 14.59748840 85435
SWIFT                   
1 28485U 04047A   24346.17467752  .00023125  00000+0  79840-3 0  9993
2 28485  20.5573 346.6395 0006655  65.1845 294.9285 15.27943370101347
THEMIS A                
1 30580U 07004A   24344.79669192 -.00000333  00000+0  00000+0 0  9991
2 30580   7.6219 249.9924 8416255 354.6538   0.4216  0.87838262 36407
THEMIS D                
1 30797U 07004D   24345.82376124 -.00000402  00000+0  00000+0 0  9993
2 30797   3.0161 250.2436 8403128 358.6945 314.1880  0.87838880 36203
THEMIS E                
1 30798U 07004E   24345.82584637 -.00000406  00000+0  00000+0 0  9998
2 30798   5.2770 274.6623 8391532 335.2450 328.2031  0.87836286 61041
FGRST (GLAST)           
1 33053U 08029A   24345.61551237  .00006707  00000+0  29436-3 0  9997
2 33053  25.5829  75.5953 0009075 296.1247  63.8356 15.19231659911412
TDRS 11                 
1 39070U 13004A   24345.84441419  .00000094  00000+0  00000+0 0  9991
2 39070   2.8589  17.7117 0002025  22.4460 169.5740  1.00276471 43438
TDRS 12                 
1 39504U 14004A   24345.87091275 -.00000256  00000+0  00000+0 0  9999
2 39504   3.5915   7.6686 0005518 245.0241 100.0516  1.00273764 38729
GPM-CORE                
1 39574U 14009C   24345.87237336  .00022892  00000+0  48455-3 0  9990
2 39574  64.9819   1.4367 0011721 268.2720  91.7078 15.45047864612349
MMS 1                   
1 40482U 15011A   24344.66667824 -.00000053  00000+0  00000+0 0  9995
2 40482  57.7729   1.2079 8938079 154.6386 100.3249  0.28520038  1382
MMS 2                   
1 40483U 15011B   24344.66667824 -.00000053  00000+0  00000+0 0  9996
2 40483  57.7720   1.2089 8937674 154.6379  98.8360  0.28519007  1386
MMS 3                   
1 40484U 15011C   24344.66667824 -.00000053  00000+0  00000+0 0  9997
2 40484  57.7749   1.2066 8937981 154.6391  99.0631  0.28519877  1387
MMS 4                   
1 40485U 15011D   24344.75001157 -.00000054  00000+0  00000+0 0  9990
2 40485  57.7768   1.2069 8936565 154.6402  97.6592  0.28523029  1386
TDRS 13                 
1 42915U 17047A   24345.87673375 -.00000087  00000+0  00000+0 0  9998
2 42915   3.5239 348.6559 0010718 125.6283 270.0729  1.00270829 26801
NOAA 20 (JPSS-1)        
1 43013U 17073A   24346.11600139  .00000220  00000+0  12480-3 0  9990
2 43013  98.7246 281.1860 0002306  71.3269 288.8158 14.19584704366002
